{"fetched_at":"2026-04-08T13:20:28Z","count":8910,"tles":[{"name":"STARLINK-37208","line1":"1 68523U 26068R   26097.11771091 -.00751371  18504-3 -20734-2 0  9992","line2":"2 68523  53.1615   6.8757 0000614  51.6912 308.4171 15.93164156  1168","category":"Starlink"}]}