{
  "norad_id": 68523,
  "name": "STARLINK-37208",
  "history": [
    {
      "epoch": "2026-04-07T02:49:30.221760Z",
      "apogee_km": 293.8449861083218,
      "perigee_km": 293.0243827911345,
      "latitude_deg": -1.9078635717001995e-05,
      "longitude_deg": 129.10055425531377,
      "height_km": 294.10402742693367,
      "semi_major_axis_km": 6671.571684449728,
      "eccentricity": 6.15e-05,
      "inclination_deg": 53.1615,
      "raan_deg": 6.8757,
      "arg_perigee_deg": 51.6912,
      "mean_anomaly_deg": 308.4171,
      "mean_motion_rev_day": 15.93164156
    }
  ]
}